{
  "norad_id": 48799,
  "name": "ONEWEB-0225",
  "history": [
    {
      "epoch": "2026-04-11T17:40:40.774656Z",
      "apogee_km": 1203.5426178231228,
      "perigee_km": 1200.005831245754,
      "latitude_deg": 3.9908584054974284e-05,
      "longitude_deg": 167.33541928956583,
      "height_km": 1204.6595536073182,
      "semi_major_axis_km": 7579.911224534438,
      "eccentricity": 0.0002333,
      "inclination_deg": 87.8933,
      "raan_deg": 272.4571,
      "arg_perigee_deg": 89.8057,
      "mean_anomaly_deg": 270.3341,
      "mean_motion_rev_day": 13.1554765
    },
    {
      "epoch": "2026-04-13T04:21:36.499680Z",
      "apogee_km": 1203.5551551947938,
      "perigee_km": 1199.98941426907,
      "latitude_deg": 2.6147048884825708e-05,
      "longitude_deg": 5.389885255134019,
      "height_km": 1204.6303288548634,
      "semi_major_axis_km": 7579.909284731932,
      "eccentricity": 0.00023521,
      "inclination_deg": 87.8935,
      "raan_deg": 272.1681,
      "arg_perigee_deg": 88.9315,
      "mean_anomaly_deg": 271.2085,
      "mean_motion_rev_day": 13.15548155
    },
    {
      "epoch": "2026-04-14T20:31:06.351168Z",
      "apogee_km": 1203.5340565383694,
      "perigee_km": 1200.0093989799607,
      "latitude_deg": -5.327930622987911e-05,
      "longitude_deg": 121.03196046838052,
      "height_km": 1204.6048753980986,
      "semi_major_axis_km": 7579.908727759164,
      "eccentricity": 0.0002325,
      "inclination_deg": 87.8939,
      "raan_deg": 271.8338,
      "arg_perigee_deg": 88.1073,
      "mean_anomaly_deg": 272.0323,
      "mean_motion_rev_day": 13.155483
    },
    {
      "epoch": "2026-04-15T20:14:54.011616Z",
      "apogee_km": 1203.5317518290858,
      "perigee_km": 1200.0116422301853,
      "latitude_deg": -1.6229248710630673e-05,
      "longitude_deg": 123.91112593495343,
      "height_km": 1204.6003015244485,
      "semi_major_axis_km": 7579.908697029636,
      "eccentricity": 0.0002322,
      "inclination_deg": 87.8939,
      "raan_deg": 271.6361,
      "arg_perigee_deg": 87.9569,
      "mean_anomaly_deg": 272.1827,
      "mean_motion_rev_day": 13.15548308
    },
    {
      "epoch": "2026-04-16T18:09:10.233216Z",
      "apogee_km": 1203.5248821666992,
      "perigee_km": 1200.0153851638124,
      "latitude_deg": -1.997873238940257e-05,
      "longitude_deg": 154.26155144473708,
      "height_km": 1204.574843309366,
      "semi_major_axis_km": 7579.907133665256,
      "eccentricity": 0.0002315,
      "inclination_deg": 87.8939,
      "raan_deg": 271.4537,
      "arg_perigee_deg": 87.1694,
      "mean_anomaly_deg": 272.9701,
      "mean_motion_rev_day": 13.15548715
    },
    {
      "epoch": "2026-04-17T21:32:00.602016Z",
      "apogee_km": 1203.5094482814711,
      "perigee_km": 1200.0367882598857,
      "latitude_deg": -2.643339131819694e-05,
      "longitude_deg": 102.19919904039246,
      "height_km": 1204.560635451723,
      "semi_major_axis_km": 7579.910118270678,
      "eccentricity": 0.00022907,
      "inclination_deg": 87.894,
      "raan_deg": 271.2257,
      "arg_perigee_deg": 86.5697,
      "mean_anomaly_deg": 273.5695,
      "mean_motion_rev_day": 13.15547938
    },
    {
      "epoch": "2026-04-18T17:36:45.404640Z",
      "apogee_km": 1203.4921617779883,
      "perigee_km": 1200.0478520340494,
      "latitude_deg": 5.0764636873976215e-06,
      "longitude_deg": 160.0205028844327,
      "height_km": 1204.5410404073227,
      "semi_major_axis_km": 7579.907006906018,
      "eccentricity": 0.0002272,
      "inclination_deg": 87.8938,
      "raan_deg": 271.0583,
      "arg_perigee_deg": 85.9909,
      "mean_anomaly_deg": 274.1481,
      "mean_motion_rev_day": 13.15548748
    },
    {
      "epoch": "2026-04-19T17:20:32.984736Z",
      "apogee_km": 1203.4881610385592,
      "perigee_km": 1200.0559782118326,
      "latitude_deg": 7.369050972792086e-06,
      "longitude_deg": 162.90009997697868,
      "height_km": 1204.5339433420386,
      "semi_major_axis_km": 7579.909069625195,
      "eccentricity": 0.0002264,
      "inclination_deg": 87.8939,
      "raan_deg": 270.8607,
      "arg_perigee_deg": 85.6696,
      "mean_anomaly_deg": 274.4693,
      "mean_motion_rev_day": 13.15548211
    },
    {
      "epoch": "2026-04-20T09:46:15.153312Z",
      "apogee_km": 1203.4845401346383,
      "perigee_km": 1200.0599371406215,
      "latitude_deg": -2.1302080537846832e-05,
      "longitude_deg": -84.33719432030033,
      "height_km": 1204.5226660250173,
      "semi_major_axis_km": 7579.90923863763,
      "eccentricity": 0.0002259,
      "inclination_deg": 87.894,
      "raan_deg": 270.7238,
      "arg_perigee_deg": 85.2753,
      "mean_anomaly_deg": 274.8635,
      "mean_motion_rev_day": 13.15548167
    },
    {
      "epoch": "2026-04-21T20:27:10.791072Z",
      "apogee_km": 1203.8487408249857,
      "perigee_km": 1199.6691861907075,
      "latitude_deg": 2.7578045891900847e-05,
      "longitude_deg": 113.71753580340287,
      "height_km": 1204.265811290376,
      "semi_major_axis_km": 7579.895963507846,
      "eccentricity": 0.0002757,
      "inclination_deg": 87.8939,
      "raan_deg": 270.4347,
      "arg_perigee_deg": 79.4197,
      "mean_anomaly_deg": 280.7244,
      "mean_motion_rev_day": 13.15551623
    },
    {
      "epoch": "2026-04-22T16:31:55.637760Z",
      "apogee_km": 1203.4382302871645,
      "perigee_km": 1200.1000396253303,
      "latitude_deg": -2.5562323714202705e-05,
      "longitude_deg": 171.53845027408232,
      "height_km": 1204.491551745408,
      "semi_major_axis_km": 7579.906134956247,
      "eccentricity": 0.0002202,
      "inclination_deg": 87.8943,
      "raan_deg": 270.2671,
      "arg_perigee_deg": 84.1832,
      "mean_anomaly_deg": 275.9549,
      "mean_motion_rev_day": 13.15548975
    }
  ]
}